[
  {
    "CCSDS_OMM_VERS": "3.0",
    "COMMENT": "GENERATED VIA SPACE-TRACK.ORG API",
    "CREATION_DATE": "2026-02-19T17:59:09",
    "ORIGINATOR": "18 SPCS",
    "OBJECT_NAME": "COSMOS 2532",
    "OBJECT_ID": "2018-097C",
    "CENTER_NAME": "EARTH",
    "REF_FRAME": "TEME",
    "TIME_SYSTEM": "UTC",
    "MEAN_ELEMENT_THEORY": "SGP4",
    "EPOCH": "2026-02-19T15:53:11.400864",
    "MEAN_MOTION": "12.42905281",
    "ECCENTRICITY": "0.00178432",
    "INCLINATION": "82.5140",
    "RA_OF_ASC_NODE": "295.1047",
    "ARG_OF_PERICENTER": "316.0716",
    "MEAN_ANOMALY": "43.8944",
    "EPHEMERIS_TYPE": "0",
    "CLASSIFICATION_TYPE": "U",
    "NORAD_CAT_ID": "43753",
    "ELEMENT_SET_NO": "999",
    "REV_AT_EPOCH": "32767",
    "BSTAR": "0.00120177390000",
    "MEAN_MOTION_DOT": "0.00000176",
    "MEAN_MOTION_DDOT": "0.0000000000000",
    "SEMIMAJOR_AXIS": "7872.448",
    "PERIOD": "115.858",
    "APOAPSIS": "1508.360",
    "PERIAPSIS": "1480.266",
    "OBJECT_TYPE": "PAYLOAD",
    "RCS_SIZE": "LARGE",
    "COUNTRY_CODE": "CIS",
    "LAUNCH_DATE": "2018-11-30",
    "SITE": "PKMTR",
    "DECAY_DATE": null,
    "FILE": "5039972",
    "GP_ID": "313171816",
    "TLE_LINE0": "0 COSMOS 2532",
    "TLE_LINE1": "1 43753U 18097C   26050.66193751  .00000176  00000-0  12018-2 0  9996",
    "TLE_LINE2": "2 43753  82.5140 295.1047 0017843 316.0716  43.8944 12.42905281327670"
  },
  {
    "CCSDS_OMM_VERS": "3.0",
    "COMMENT": "GENERATED VIA SPACE-TRACK.ORG API",
    "CREATION_DATE": "2026-02-19T17:59:09",
    "ORIGINATOR": "18 SPCS",
    "OBJECT_NAME": "COSMOS 2385",
    "OBJECT_ID": "2001-058B",
    "CENTER_NAME": "EARTH",
    "REF_FRAME": "TEME",
    "TIME_SYSTEM": "UTC",
    "MEAN_ELEMENT_THEORY": "SGP4",
    "EPOCH": "2026-02-19T15:51:24.830784",
    "MEAN_MOTION": "12.60563436",
    "ECCENTRICITY": "0.00065836",
    "INCLINATION": "82.5378",
    "RA_OF_ASC_NODE": "295.0274",
    "ARG_OF_PERICENTER": "132.1317",
    "MEAN_ANOMALY": "256.1177",
    "EPHEMERIS_TYPE": "0",
    "CLASSIFICATION_TYPE": "U",
    "NORAD_CAT_ID": "27056",
    "ELEMENT_SET_NO": "999",
    "REV_AT_EPOCH": "11097",
    "BSTAR": "0.00127174910000",
    "MEAN_MOTION_DOT": "0.00000233",
    "MEAN_MOTION_DDOT": "0.0000000000000",
    "SEMIMAJOR_AXIS": "7798.757",
    "PERIOD": "114.235",
    "APOAPSIS": "1425.756",
    "PERIAPSIS": "1415.487",
    "OBJECT_TYPE": "PAYLOAD",
    "RCS_SIZE": "MEDIUM",
    "COUNTRY_CODE": "CIS",
    "LAUNCH_DATE": "2001-12-28",
    "SITE": "PKMTR",
    "DECAY_DATE": null,
    "FILE": "5039972",
    "GP_ID": "313163170",
    "TLE_LINE0": "0 COSMOS 2385",
    "TLE_LINE1": "1 27056U 01058B   26050.66070406  .00000233  00000-0  12717-2 0  9994",
    "TLE_LINE2": "2 27056  82.5378 295.0274 0006584 132.1317 256.1177 12.60563436110978"
  },
  {
    "CCSDS_OMM_VERS": "3.0",
    "COMMENT": "GENERATED VIA SPACE-TRACK.ORG API",
    "CREATION_DATE": "2026-02-19T19:16:27",
    "ORIGINATOR": "18 SPCS",
    "OBJECT_NAME": "SHIJIAN 6 05A (SJ-6 05A)",
    "OBJECT_ID": "2021-122A",
    "CENTER_NAME": "EARTH",
    "REF_FRAME": "TEME",
    "TIME_SYSTEM": "UTC",
    "MEAN_ELEMENT_THEORY": "SGP4",
    "EPOCH": "2026-02-19T15:50:32.434368",
    "MEAN_MOTION": "14.98958881",
    "ECCENTRICITY": "0.00023210",
    "INCLINATION": "97.3943",
    "RA_OF_ASC_NODE": "25.0327",
    "ARG_OF_PERICENTER": "110.9972",
    "MEAN_ANOMALY": "249.1500",
    "EPHEMERIS_TYPE": "0",
    "CLASSIFICATION_TYPE": "U",
    "NORAD_CAT_ID": "49961",
    "ELEMENT_SET_NO": "999",
    "REV_AT_EPOCH": "23114",
    "BSTAR": "0.00019723000000",
    "MEAN_MOTION_DOT": "0.00002332",
    "MEAN_MOTION_DDOT": "0.0000000000000",
    "SEMIMAJOR_AXIS": "6948.249",
    "PERIOD": "96.067",
    "APOAPSIS": "571.726",
    "PERIAPSIS": "568.501",
    "OBJECT_TYPE": "PAYLOAD",
    "RCS_SIZE": "LARGE",
    "COUNTRY_CODE": "PRC",
    "LAUNCH_DATE": "2021-12-10",
    "SITE": "JSC",
    "DECAY_DATE": null,
    "FILE": "5039997",
    "GP_ID": "313187985",
    "TLE_LINE0": "0 SHIJIAN 6 05A (SJ-6 05A)",
    "TLE_LINE1": "1 49961U 21122A   26050.66009762  .00002332  00000-0  19723-3 0  9991",
    "TLE_LINE2": "2 49961  97.3943  25.0327 0002321 110.9972 249.1500 14.98958881231145"
  },
  {
    "CCSDS_OMM_VERS": "3.0",
    "COMMENT": "GENERATED VIA SPACE-TRACK.ORG API",
    "CREATION_DATE": "2026-02-19T17:59:09",
    "ORIGINATOR": "18 SPCS",
    "OBJECT_NAME": "JASON 2",
    "OBJECT_ID": "2008-032A",
    "CENTER_NAME": "EARTH",
    "REF_FRAME": "TEME",
    "TIME_SYSTEM": "UTC",
    "MEAN_ELEMENT_THEORY": "SGP4",
    "EPOCH": "2026-02-19T15:49:34.484160",
    "MEAN_MOTION": "12.87694960",
    "ECCENTRICITY": "0.00077456",
    "INCLINATION": "66.0405",
    "RA_OF_ASC_NODE": "297.9897",
    "ARG_OF_PERICENTER": "271.9343",
    "MEAN_ANOMALY": "104.7128",
    "EPHEMERIS_TYPE": "0",
    "CLASSIFICATION_TYPE": "U",
    "NORAD_CAT_ID": "33105",
    "ELEMENT_SET_NO": "999",
    "REV_AT_EPOCH": "82857",
    "BSTAR": "0.00029374366000",
    "MEAN_MOTION_DOT": "0.00000012",
    "MEAN_MOTION_DDOT": "0.0000000000000",
    "SEMIMAJOR_AXIS": "7688.823",
    "PERIOD": "111.828",
    "APOAPSIS": "1316.643",
    "PERIAPSIS": "1304.732",
    "OBJECT_TYPE": "PAYLOAD",
    "RCS_SIZE": "LARGE",
    "COUNTRY_CODE": "FR",
    "LAUNCH_DATE": "2008-06-20",
    "SITE": "AFWTR",
    "DECAY_DATE": null,
    "FILE": "5039972",
    "GP_ID": "313166563",
    "TLE_LINE0": "0 JASON 2",
    "TLE_LINE1": "1 33105U 08032A   26050.65942690  .00000012  00000-0  29374-3 0  9990",
    "TLE_LINE2": "2 33105  66.0405 297.9897 0007746 271.9343 104.7128 12.87694960828574"
  },
  {
    "CCSDS_OMM_VERS": "3.0",
    "COMMENT": "GENERATED VIA SPACE-TRACK.ORG API",
    "CREATION_DATE": "2026-02-19T17:59:09",
    "ORIGINATOR": "18 SPCS",
    "OBJECT_NAME": "GOKTURK-1A",
    "OBJECT_ID": "2016-073A",
    "CENTER_NAME": "EARTH",
    "REF_FRAME": "TEME",
    "TIME_SYSTEM": "UTC",
    "MEAN_ELEMENT_THEORY": "SGP4",
    "EPOCH": "2026-02-19T15:49:19.129152",
    "MEAN_MOTION": "14.62805431",
    "ECCENTRICITY": "0.00013268",
    "INCLINATION": "98.1392",
    "RA_OF_ASC_NODE": "307.0904",
    "ARG_OF_PERICENTER": "79.9368",
    "MEAN_ANOMALY": "280.1983",
    "EPHEMERIS_TYPE": "0",
    "CLASSIFICATION_TYPE": "U",
    "NORAD_CAT_ID": "41875",
    "ELEMENT_SET_NO": "999",
    "REV_AT_EPOCH": "49164",
    "BSTAR": "0.00004271329700",
    "MEAN_MOTION_DOT": "0.00000171",
    "MEAN_MOTION_DDOT": "0.0000000000000",
    "SEMIMAJOR_AXIS": "7062.267",
    "PERIOD": "98.441",
    "APOAPSIS": "685.069",
    "PERIAPSIS": "683.195",
    "OBJECT_TYPE": "PAYLOAD",
    "RCS_SIZE": "LARGE",
    "COUNTRY_CODE": "TURK",
    "LAUNCH_DATE": "2016-12-05",
    "SITE": "FRGUI",
    "DECAY_DATE": null,
    "FILE": "5039972",
    "GP_ID": "313170287",
    "TLE_LINE0": "0 GOKTURK-1A",
    "TLE_LINE1": "1 41875U 16073A   26050.65924918  .00000171  00000-0  42713-4 0  9999",
    "TLE_LINE2": "2 41875  98.1392 307.0904 0001327  79.9368 280.1983 14.62805431491646"
  },
  {
    "CCSDS_OMM_VERS": "3.0",
    "COMMENT": "GENERATED VIA SPACE-TRACK.ORG API",
    "CREATION_DATE": "2026-02-19T17:59:09",
    "ORIGINATOR": "18 SPCS",
    "OBJECT_NAME": "KHAYYAM",
    "OBJECT_ID": "2022-096A",
    "CENTER_NAME": "EARTH",
    "REF_FRAME": "TEME",
    "TIME_SYSTEM": "UTC",
    "MEAN_ELEMENT_THEORY": "SGP4",
    "EPOCH": "2026-02-19T15:48:41.099328",
    "MEAN_MOTION": "15.24522296",
    "ECCENTRICITY": "0.00026973",
    "INCLINATION": "97.3536",
    "RA_OF_ASC_NODE": "317.0253",
    "ARG_OF_PERICENTER": "87.1191",
    "MEAN_ANOMALY": "273.0355",
    "EPHEMERIS_TYPE": "0",
    "CLASSIFICATION_TYPE": "U",
    "NORAD_CAT_ID": "53370",
    "ELEMENT_SET_NO": "999",
    "REV_AT_EPOCH": "19667",
    "BSTAR": "0.00021303409000",
    "MEAN_MOTION_DOT": "0.00005170",
    "MEAN_MOTION_DDOT": "0.0000000000000",
    "SEMIMAJOR_AXIS": "6870.357",
    "PERIOD": "94.456",
    "APOAPSIS": "494.075",
    "PERIAPSIS": "490.369",
    "OBJECT_TYPE": "PAYLOAD",
    "RCS_SIZE": "LARGE",
    "COUNTRY_CODE": "IRAN",
    "LAUNCH_DATE": "2022-08-09",
    "SITE": "TTMTR",
    "DECAY_DATE": null,
    "FILE": "5039972",
    "GP_ID": "313175385",
    "TLE_LINE0": "0 KHAYYAM",
    "TLE_LINE1": "1 53370U 22096A   26050.65880902  .00005170  00000-0  21303-3 0  9993",
    "TLE_LINE2": "2 53370  97.3536 317.0253 0002697  87.1191 273.0355 15.24522296196677"
  },
  {
    "CCSDS_OMM_VERS": "3.0",
    "COMMENT": "GENERATED VIA SPACE-TRACK.ORG API",
    "CREATION_DATE": "2026-02-19T16:56:29",
    "ORIGINATOR": "18 SPCS",
    "OBJECT_NAME": "STARLINK-30200",
    "OBJECT_ID": "2023-096S",
    "CENTER_NAME": "EARTH",
    "REF_FRAME": "TEME",
    "TIME_SYSTEM": "UTC",
    "MEAN_ELEMENT_THEORY": "SGP4",
    "EPOCH": "2026-02-19T15:46:38.170272",
    "MEAN_MOTION": "16.03186164",
    "ECCENTRICITY": "0.00253510",
    "INCLINATION": "42.9627",
    "RA_OF_ASC_NODE": "237.4384",
    "ARG_OF_PERICENTER": "291.2324",
    "MEAN_ANOMALY": "68.5848",
    "EPHEMERIS_TYPE": "0",
    "CLASSIFICATION_TYPE": "U",
    "NORAD_CAT_ID": "57306",
    "ELEMENT_SET_NO": "999",
    "REV_AT_EPOCH": "14497",
    "BSTAR": "0.00117680000000",
    "MEAN_MOTION_DOT": "0.00783509",
    "MEAN_MOTION_DDOT": "0.0003035700000",
    "SEMIMAJOR_AXIS": "6643.739",
    "PERIOD": "89.821",
    "APOAPSIS": "282.446",
    "PERIAPSIS": "248.761",
    "OBJECT_TYPE": "PAYLOAD",
    "RCS_SIZE": "LARGE",
    "COUNTRY_CODE": "US",
    "LAUNCH_DATE": "2023-07-10",
    "SITE": "AFETR",
    "DECAY_DATE": null,
    "FILE": "5039944",
    "GP_ID": "313155219",
    "TLE_LINE0": "0 STARLINK-30200",
    "TLE_LINE1": "1 57306U 23096S   26050.65738623  .00783509  30357-3  11768-2 0  9992",
    "TLE_LINE2": "2 57306  42.9627 237.4384 0025351 291.2324  68.5848 16.03186164144973"
  }
]